{"type":"FeatureCollection","features":[{"type":"Feature","properties":{"s":"Arunachal Pradesh","v":1},"geometry":{"type":"Point","coordinates":[95.2525,27.8812]}},{"type":"Feature","properties":{"s":"Arunachal Pradesh","v":1},"geometry":{"type":"Point","coordinates":[94.0076,27.6241]}},{"type":"Feature","properties":{"s":"Arunachal Pradesh","v":1},"geometry":{"type":"Point","coordinates":[94.3854,27.8085]}},{"type":"Feature","properties":{"s":"Arunachal Pradesh","v":1},"geometry":{"type":"Point","coordinates":[92.3036,27.6671]}},{"type":"Feature","properties":{"s":"Arunachal Pradesh","v":1},"geometry":{"type":"Point","coordinates":[97.2535,27.9928]}},{"type":"Feature","properties":{"s":"Arunachal Pradesh","v":1},"geometry":{"type":"Point","coordinates":[93.7711,27.7588]}},{"type":"Feature","properties":{"s":"Arunachal Pradesh","v":1},"geometry":{"type":"Point","coordinates":[96.2667,28.4462]}},{"type":"Feature","properties":{"s":"Arunachal Pradesh","v":1},"geometry":{"type":"Point","coordinates":[93.25,28.1618]}},{"type":"Feature","properties":{"s":"Arunachal Pradesh","v":1},"geometry":{"type":"Point","coordinates":[92.0522,27.4852]}},{"type":"Feature","properties":{"s":"Arunachal Pradesh","v":1},"geometry":{"type":"Point","coordinates":[96.4231,28.256]}},{"type":"Feature","properties":{"s":"Arunachal Pradesh","v":1},"geometry":{"type":"Point","coordinates":[94.3394,29.0127]}},{"type":"Feature","properties":{"s":"Arunachal Pradesh","v":1},"geometry":{"type":"Point","coordinates":[95.2924,29.0094]}},{"type":"Feature","properties":{"s":"Arunachal Pradesh","v":1},"geometry":{"type":"Point","coordinates":[96.7958,28.011]}},{"type":"Feature","properties":{"s":"Arunachal Pradesh","v":1},"geometry":{"type":"Point","coordinates":[94.2477,29.1097]}},{"type":"Feature","properties":{"s":"Arunachal Pradesh","v":1},"geometry":{"type":"Point","coordinates":[96.6033,28.2016]}},{"type":"Feature","properties":{"s":"Arunachal Pradesh","v":1},"geometry":{"type":"Point","coordinates":[96.4321,28.1478]}},{"type":"Feature","properties":{"s":"Arunachal Pradesh","v":1},"geometry":{"type":"Point","coordinates":[93.4263,28.4371]}},{"type":"Feature","properties":{"s":"Arunachal Pradesh","v":1},"geometry":{"type":"Point","coordinates":[96.9657,28.124]}},{"type":"Feature","properties":{"s":"Assam","v":0.5},"geometry":{"type":"Point","coordinates":[92.3203,24.2553]}},{"type":"Feature","properties":{"s":"Assam","v":0.5},"geometry":{"type":"Point","coordinates":[93.8943,26.5954]}},{"type":"Feature","properties":{"s":"Assam","v":0.5},"geometry":{"type":"Point","coordinates":[92.5229,26.5866]}},{"type":"Feature","properties":{"s":"Assam","v":0.5},"geometry":{"type":"Point","coordinates":[94.4317,27.0809]}},{"type":"Feature","properties":{"s":"Assam","v":0.5},"geometry":{"type":"Point","coordinates":[93.6856,26.6015]}},{"type":"Feature","properties":{"s":"Assam","v":0.5},"geometry":{"type":"Point","coordinates":[94.2645,26.7167]}},{"type":"Feature","properties":{"s":"Assam","v":0.5},"geometry":{"type":"Point","coordinates":[94.2753,27.1721]}},{"type":"Feature","properties":{"s":"Assam","v":0.5},"geometry":{"type":"Point","coordinates":[92.8004,25.2166]}},{"type":"Feature","properties":{"s":"Assam","v":0.5},"geometry":{"type":"Point","coordinates":[91.5009,26.0202]}},{"type":"Feature","properties":{"s":"Chandigarh","v":0},"geometry":{"type":"Point","coordinates":[76.7787,30.7835]}},{"type":"Feature","properties":{"s":"Chandigarh","v":0},"geometry":{"type":"Point","coordinates":[76.7341,30.772]}},{"type":"Feature","properties":{"s":"Chandigarh","v":0},"geometry":{"type":"Point","coordinates":[76.7459,30.7362]}},{"type":"Feature","properties":{"s":"Chandigarh","v":0},"geometry":{"type":"Point","coordinates":[76.7552,30.7554]}},{"type":"Feature","properties":{"s":"Chandigarh","v":0},"geometry":{"type":"Point","coordinates":[76.7791,30.7292]}},{"type":"Feature","properties":{"s":"Chandigarh","v":0},"geometry":{"type":"Point","coordinates":[76.8152,30.7357]}},{"type":"Feature","properties":{"s":"Chhattisgarh","v":0.4},"geometry":{"type":"Point","coordinates":[83.3494,23.6441]}},{"type":"Feature","properties":{"s":"Chhattisgarh","v":0.4},"geometry":{"type":"Point","coordinates":[81.2867,20.0336]}},{"type":"Feature","properties":{"s":"Chhattisgarh","v":0.4},"geometry":{"type":"Point","coordinates":[82.5669,22.4639]}},{"type":"Feature","properties":{"s":"Chhattisgarh","v":0.4},"geometry":{"type":"Point","coordinates":[83.2756,21.4028]}},{"type":"Feature","properties":{"s":"Chhattisgarh","v":0.4},"geometry":{"type":"Point","coordinates":[81.2167,21.9583]}},{"type":"Feature","properties":{"s":"Chhattisgarh","v":0.4},"geometry":{"type":"Point","coordinates":[82.9128,22.7303]}},{"type":"Feature","properties":{"s":"Chhattisgarh","v":0.4},"geometry":{"type":"Point","coordinates":[82.5588,23.2415]}},{"type":"Feature","properties":{"s":"Delhi","v":0.4},"geometry":{"type":"Point","coordinates":[76.9559,28.5856]}},{"type":"Feature","properties":{"s":"Delhi","v":0.4},"geometry":{"type":"Point","coordinates":[77.1281,28.6973]}},{"type":"Feature","properties":{"s":"Delhi","v":0.4},"geometry":{"type":"Point","coordinates":[76.9947,28.6544]}},{"type":"Feature","properties":{"s":"Delhi","v":0.4},"geometry":{"type":"Point","coordinates":[76.997,28.6801]}},{"type":"Feature","properties":{"s":"Delhi","v":0.4},"geometry":{"type":"Point","coordinates":[77.1878,28.7755]}},{"type":"Feature","properties":{"s":"Delhi","v":0.4},"geometry":{"type":"Point","coordinates":[77.003,28.6815]}},{"type":"Feature","properties":{"s":"Delhi","v":0.4},"geometry":{"type":"Point","coordinates":[77.0831,28.5306]}},{"type":"Feature","properties":{"s":"Goa","v":0},"geometry":{"type":"Point","coordinates":[74.1824,15.6111]}},{"type":"Feature","properties":{"s":"Goa","v":0},"geometry":{"type":"Point","coordinates":[73.8516,15.4951]}},{"type":"Feature","properties":{"s":"Goa","v":0},"geometry":{"type":"Point","coordinates":[74,15.4342]}},{"type":"Feature","properties":{"s":"Goa","v":0},"geometry":{"type":"Point","coordinates":[73.9906,15.2591]}},{"type":"Feature","properties":{"s":"Goa","v":0},"geometry":{"type":"Point","coordinates":[74.1172,15.2256]}},{"type":"Feature","properties":{"s":"Goa","v":0},"geometry":{"type":"Point","coordinates":[74.1843,15.4999]}},{"type":"Feature","properties":{"s":"Haryana","v":0.4},"geometry":{"type":"Point","coordinates":[76.5147,28.1635]}},{"type":"Feature","properties":{"s":"Haryana","v":0.4},"geometry":{"type":"Point","coordinates":[76.2239,29.911]}},{"type":"Feature","properties":{"s":"Haryana","v":0.4},"geometry":{"type":"Point","coordinates":[77.3477,27.9305]}},{"type":"Feature","properties":{"s":"Haryana","v":0.4},"geometry":{"type":"Point","coordinates":[77.5308,30.258]}},{"type":"Feature","properties":{"s":"Haryana","v":0.4},"geometry":{"type":"Point","coordinates":[76.3275,28.607]}},{"type":"Feature","properties":{"s":"Haryana","v":0.4},"geometry":{"type":"Point","coordinates":[76.5421,29.4144]}},{"type":"Feature","properties":{"s":"Haryana","v":0.4},"geometry":{"type":"Point","coordinates":[76.9679,30.0299]}},{"type":"Feature","properties":{"s":"Himachal Pradesh","v":0.1},"geometry":{"type":"Point","coordinates":[76.7309,32.7312]}},{"type":"Feature","properties":{"s":"Himachal Pradesh","v":0.1},"geometry":{"type":"Point","coordinates":[77.539,30.6865]}},{"type":"Feature","properties":{"s":"Himachal Pradesh","v":0.1},"geometry":{"type":"Point","coordinates":[77.3195,32.1136]}},{"type":"Feature","properties":{"s":"Himachal Pradesh","v":0.1},"geometry":{"type":"Point","coordinates":[78.5363,31.6314]}},{"type":"Feature","properties":{"s":"Himachal Pradesh","v":0.1},"geometry":{"type":"Point","coordinates":[77.0597,31.9055]}},{"type":"Feature","properties":{"s":"Himachal Pradesh","v":0.1},"geometry":{"type":"Point","coordinates":[76.8479,32.2955]}},{"type":"Feature","properties":{"s":"Jharkhand","v":0.5},"geometry":{"type":"Point","coordinates":[85.114,23.1673]}},{"type":"Feature","properties":{"s":"Jharkhand","v":0.5},"geometry":{"type":"Point","coordinates":[83.9315,23.6951]}},{"type":"Feature","properties":{"s":"Jharkhand","v":0.5},"geometry":{"type":"Point","coordinates":[84.3209,24.3758]}},{"type":"Feature","properties":{"s":"Jharkhand","v":0.5},"geometry":{"type":"Point","coordinates":[86.3627,22.8427]}},{"type":"Feature","properties":{"s":"Jharkhand","v":0.5},"geometry":{"type":"Point","coordinates":[87.4743,25.1098]}},{"type":"Feature","properties":{"s":"Jharkhand","v":0.5},"geometry":{"type":"Point","coordinates":[85.8176,22.4565]}},{"type":"Feature","properties":{"s":"Jharkhand","v":0.5},"geometry":{"type":"Point","coordinates":[86.0119,23.6654]}},{"type":"Feature","properties":{"s":"Jharkhand","v":0.5},"geometry":{"type":"Point","coordinates":[86.749,22.2778]}},{"type":"Feature","properties":{"s":"Jharkhand","v":0.5},"geometry":{"type":"Point","coordinates":[86.5606,24.3316]}},{"type":"Feature","properties":{"s":"Karnataka","v":0.5},"geometry":{"type":"Point","coordinates":[75.7535,12.6004]}},{"type":"Feature","properties":{"s":"Karnataka","v":0.5},"geometry":{"type":"Point","coordinates":[74.7512,14.0827]}},{"type":"Feature","properties":{"s":"Karnataka","v":0.5},"geometry":{"type":"Point","coordinates":[77.1062,12.8062]}},{"type":"Feature","properties":{"s":"Karnataka","v":0.5},"geometry":{"type":"Point","coordinates":[74.5127,14.7475]}},{"type":"Feature","properties":{"s":"Karnataka","v":0.5},"geometry":{"type":"Point","coordinates":[75.3316,16.6765]}},{"type":"Feature","properties":{"s":"Karnataka","v":0.5},"geometry":{"type":"Point","coordinates":[74.8855,15.1463]}},{"type":"Feature","properties":{"s":"Karnataka","v":0.5},"geometry":{"type":"Point","coordinates":[74.878,13.1824]}},{"type":"Feature","properties":{"s":"Karnataka","v":0.5},"geometry":{"type":"Point","coordinates":[77.0673,13.5964]}},{"type":"Feature","properties":{"s":"Karnataka","v":0.5},"geometry":{"type":"Point","coordinates":[75.4753,12.8895]}},{"type":"Feature","properties":{"s":"Manipur","v":0.1},"geometry":{"type":"Point","coordinates":[93.6612,24.6349]}},{"type":"Feature","properties":{"s":"Manipur","v":0.1},"geometry":{"type":"Point","coordinates":[94.1157,25.3412]}},{"type":"Feature","properties":{"s":"Manipur","v":0.1},"geometry":{"type":"Point","coordinates":[93.3211,24.2108]}},{"type":"Feature","properties":{"s":"Manipur","v":0.1},"geometry":{"type":"Point","coordinates":[94.1372,25.0944]}},{"type":"Feature","properties":{"s":"Manipur","v":0.1},"geometry":{"type":"Point","coordinates":[93.9801,24.5771]}},{"type":"Feature","properties":{"s":"Manipur","v":0.1},"geometry":{"type":"Point","coordinates":[93.5836,24.6481]}},{"type":"Feature","properties":{"s":"Meghalaya","v":1.1},"geometry":{"type":"Point","coordinates":[90.0041,25.5966]}},{"type":"Feature","properties":{"s":"Meghalaya","v":1.1},"geometry":{"type":"Point","coordinates":[91.7171,25.4122]}},{"type":"Feature","properties":{"s":"Meghalaya","v":1.1},"geometry":{"type":"Point","coordinates":[90.365,25.2648]}},{"type":"Feature","properties":{"s":"Meghalaya","v":1.1},"geometry":{"type":"Point","coordinates":[92.4936,25.5262]}},{"type":"Feature","properties":{"s":"Meghalaya","v":1.1},"geometry":{"type":"Point","coordinates":[91.4282,25.2008]}},{"type":"Feature","properties":{"s":"Meghalaya","v":1.1},"geometry":{"type":"Point","coordinates":[90.3665,25.8625]}},{"type":"Feature","properties":{"s":"Meghalaya","v":1.1},"geometry":{"type":"Point","coordinates":[90.2108,25.9282]}},{"type":"Feature","properties":{"s":"Meghalaya","v":1.1},"geometry":{"type":"Point","coordinates":[92.1264,25.9542]}},{"type":"Feature","properties":{"s":"Meghalaya","v":1.1},"geometry":{"type":"Point","coordinates":[90.4174,25.4482]}},{"type":"Feature","properties":{"s":"Meghalaya","v":1.1},"geometry":{"type":"Point","coordinates":[91.8081,25.7382]}},{"type":"Feature","properties":{"s":"Meghalaya","v":1.1},"geometry":{"type":"Point","coordinates":[91.2266,25.3068]}},{"type":"Feature","properties":{"s":"Meghalaya","v":1.1},"geometry":{"type":"Point","coordinates":[89.9101,25.4434]}},{"type":"Feature","properties":{"s":"Meghalaya","v":1.1},"geometry":{"type":"Point","coordinates":[90.9354,25.5378]}},{"type":"Feature","properties":{"s":"Meghalaya","v":1.1},"geometry":{"type":"Point","coordinates":[90.8276,25.9158]}},{"type":"Feature","properties":{"s":"Meghalaya","v":1.1},"geometry":{"type":"Point","coordinates":[91.1556,25.3221]}},{"type":"Feature","properties":{"s":"Meghalaya","v":1.1},"geometry":{"type":"Point","coordinates":[90.8476,25.9191]}},{"type":"Feature","properties":{"s":"Meghalaya","v":1.1},"geometry":{"type":"Point","coordinates":[90.632,25.3197]}},{"type":"Feature","properties":{"s":"Meghalaya","v":1.1},"geometry":{"type":"Point","coordinates":[91.5261,25.4271]}},{"type":"Feature","properties":{"s":"Meghalaya","v":1.1},"geometry":{"type":"Point","coordinates":[91.9809,25.2896]}},{"type":"Feature","properties":{"s":"Meghalaya","v":1.1},"geometry":{"type":"Point","coordinates":[90.6104,25.8086]}},{"type":"Feature","properties":{"s":"Mizoram","v":0.1},"geometry":{"type":"Point","coordinates":[92.8967,24.2784]}},{"type":"Feature","properties":{"s":"Mizoram","v":0.1},"geometry":{"type":"Point","coordinates":[93.2602,23.4692]}},{"type":"Feature","properties":{"s":"Mizoram","v":0.1},"geometry":{"type":"Point","coordinates":[92.7416,24.0874]}},{"type":"Feature","properties":{"s":"Mizoram","v":0.1},"geometry":{"type":"Point","coordinates":[92.7872,23.7704]}},{"type":"Feature","properties":{"s":"Mizoram","v":0.1},"geometry":{"type":"Point","coordinates":[92.5208,23.7701]}},{"type":"Feature","properties":{"s":"Mizoram","v":0.1},"geometry":{"type":"Point","coordinates":[93.0551,23.4886]}},{"type":"Feature","properties":{"s":"Nagaland","v":0.3},"geometry":{"type":"Point","coordinates":[94.9807,25.977]}},{"type":"Feature","properties":{"s":"Nagaland","v":0.3},"geometry":{"type":"Point","coordinates":[94.4826,25.6775]}},{"type":"Feature","properties":{"s":"Nagaland","v":0.3},"geometry":{"type":"Point","coordinates":[94.9357,25.7205]}},{"type":"Feature","properties":{"s":"Nagaland","v":0.3},"geometry":{"type":"Point","coordinates":[94.4177,26.3607]}},{"type":"Feature","properties":{"s":"Nagaland","v":0.3},"geometry":{"type":"Point","coordinates":[94.7774,26.5079]}},{"type":"Feature","properties":{"s":"Nagaland","v":0.3},"geometry":{"type":"Point","coordinates":[94.1333,26.0228]}},{"type":"Feature","properties":{"s":"Punjab","v":0.1},"geometry":{"type":"Point","coordinates":[75.6603,30.8664]}},{"type":"Feature","properties":{"s":"Punjab","v":0.1},"geometry":{"type":"Point","coordinates":[75.1005,30.1007]}},{"type":"Feature","properties":{"s":"Punjab","v":0.1},"geometry":{"type":"Point","coordinates":[76.3997,31.1377]}},{"type":"Feature","properties":{"s":"Punjab","v":0.1},"geometry":{"type":"Point","coordinates":[75.8775,30.1666]}},{"type":"Feature","properties":{"s":"Punjab","v":0.1},"geometry":{"type":"Point","coordinates":[75.5333,31.7875]}},{"type":"Feature","properties":{"s":"Punjab","v":0.1},"geometry":{"type":"Point","coordinates":[76.3066,31.1346]}},{"type":"Feature","properties":{"s":"Rajasthan","v":0.6},"geometry":{"type":"Point","coordinates":[74.5667,28.4589]}},{"type":"Feature","properties":{"s":"Rajasthan","v":0.6},"geometry":{"type":"Point","coordinates":[73.8568,26.0417]}},{"type":"Feature","properties":{"s":"Rajasthan","v":0.6},"geometry":{"type":"Point","coordinates":[73.838,26.7529]}},{"type":"Feature","properties":{"s":"Rajasthan","v":0.6},"geometry":{"type":"Point","coordinates":[72.4609,27.6106]}},{"type":"Feature","properties":{"s":"Rajasthan","v":0.6},"geometry":{"type":"Point","coordinates":[72.5166,27.1486]}},{"type":"Feature","properties":{"s":"Rajasthan","v":0.6},"geometry":{"type":"Point","coordinates":[74.2006,24.3098]}},{"type":"Feature","properties":{"s":"Rajasthan","v":0.6},"geometry":{"type":"Point","coordinates":[71.5996,25.801]}},{"type":"Feature","properties":{"s":"Rajasthan","v":0.6},"geometry":{"type":"Point","coordinates":[73.4067,26.6317]}},{"type":"Feature","properties":{"s":"Rajasthan","v":0.6},"geometry":{"type":"Point","coordinates":[72.045,26.443]}},{"type":"Feature","properties":{"s":"Rajasthan","v":0.6},"geometry":{"type":"Point","coordinates":[73.9992,23.4642]}},{"type":"Feature","properties":{"s":"Rajasthan","v":0.6},"geometry":{"type":"Point","coordinates":[73.1767,27.634]}},{"type":"Feature","properties":{"s":"Sikkim","v":3.5},"geometry":{"type":"Point","coordinates":[88.3061,27.7292]}},{"type":"Feature","properties":{"s":"Sikkim","v":3.5},"geometry":{"type":"Point","coordinates":[88.2874,27.501]}},{"type":"Feature","properties":{"s":"Sikkim","v":3.5},"geometry":{"type":"Point","coordinates":[88.3728,27.5503]}},{"type":"Feature","properties":{"s":"Sikkim","v":3.5},"geometry":{"type":"Point","coordinates":[88.7834,27.3207]}},{"type":"Feature","properties":{"s":"Sikkim","v":3.5},"geometry":{"type":"Point","coordinates":[88.6274,27.3866]}},{"type":"Feature","properties":{"s":"Sikkim","v":3.5},"geometry":{"type":"Point","coordinates":[88.3513,27.8521]}},{"type":"Feature","properties":{"s":"Sikkim","v":3.5},"geometry":{"type":"Point","coordinates":[88.3787,27.2251]}},{"type":"Feature","properties":{"s":"Sikkim","v":3.5},"geometry":{"type":"Point","coordinates":[88.448,27.2433]}},{"type":"Feature","properties":{"s":"Sikkim","v":3.5},"geometry":{"type":"Point","coordinates":[88.4082,27.7457]}},{"type":"Feature","properties":{"s":"Sikkim","v":3.5},"geometry":{"type":"Point","coordinates":[88.4168,27.8631]}},{"type":"Feature","properties":{"s":"Sikkim","v":3.5},"geometry":{"type":"Point","coordinates":[88.4105,27.8958]}},{"type":"Feature","properties":{"s":"Sikkim","v":3.5},"geometry":{"type":"Point","coordinates":[88.284,27.6247]}},{"type":"Feature","properties":{"s":"Sikkim","v":3.5},"geometry":{"type":"Point","coordinates":[88.3,27.8165]}},{"type":"Feature","properties":{"s":"Sikkim","v":3.5},"geometry":{"type":"Point","coordinates":[88.3469,27.211]}},{"type":"Feature","properties":{"s":"Sikkim","v":3.5},"geometry":{"type":"Point","coordinates":[88.6627,27.3675]}},{"type":"Feature","properties":{"s":"Sikkim","v":3.5},"geometry":{"type":"Point","coordinates":[88.0753,27.5066]}},{"type":"Feature","properties":{"s":"Sikkim","v":3.5},"geometry":{"type":"Point","coordinates":[88.358,27.7187]}},{"type":"Feature","properties":{"s":"Sikkim","v":3.5},"geometry":{"type":"Point","coordinates":[88.7751,27.6704]}},{"type":"Feature","properties":{"s":"Sikkim","v":3.5},"geometry":{"type":"Point","coordinates":[88.2568,27.6468]}},{"type":"Feature","properties":{"s":"Sikkim","v":3.5},"geometry":{"type":"Point","coordinates":[88.6764,27.2338]}},{"type":"Feature","properties":{"s":"Sikkim","v":3.5},"geometry":{"type":"Point","coordinates":[88.4914,27.5177]}},{"type":"Feature","properties":{"s":"Sikkim","v":3.5},"geometry":{"type":"Point","coordinates":[88.2226,27.5006]}},{"type":"Feature","properties":{"s":"Sikkim","v":3.5},"geometry":{"type":"Point","coordinates":[88.5166,27.5162]}},{"type":"Feature","properties":{"s":"Sikkim","v":3.5},"geometry":{"type":"Point","coordinates":[88.5931,27.6373]}},{"type":"Feature","properties":{"s":"Sikkim","v":3.5},"geometry":{"type":"Point","coordinates":[88.3359,27.4944]}},{"type":"Feature","properties":{"s":"Sikkim","v":3.5},"geometry":{"type":"Point","coordinates":[88.4475,27.7077]}},{"type":"Feature","properties":{"s":"Sikkim","v":3.5},"geometry":{"type":"Point","coordinates":[88.4403,27.9083]}},{"type":"Feature","properties":{"s":"Sikkim","v":3.5},"geometry":{"type":"Point","coordinates":[88.5398,27.907]}},{"type":"Feature","properties":{"s":"Sikkim","v":3.5},"geometry":{"type":"Point","coordinates":[88.4774,27.4235]}},{"type":"Feature","properties":{"s":"Sikkim","v":3.5},"geometry":{"type":"Point","coordinates":[88.4463,27.5334]}},{"type":"Feature","properties":{"s":"Sikkim","v":3.5},"geometry":{"type":"Point","coordinates":[88.356,27.1346]}},{"type":"Feature","properties":{"s":"Sikkim","v":3.5},"geometry":{"type":"Point","coordinates":[88.6968,27.8879]}},{"type":"Feature","properties":{"s":"Sikkim","v":3.5},"geometry":{"type":"Point","coordinates":[88.7107,28.0538]}},{"type":"Feature","properties":{"s":"Sikkim","v":3.5},"geometry":{"type":"Point","coordinates":[88.3319,27.4859]}},{"type":"Feature","properties":{"s":"Sikkim","v":3.5},"geometry":{"type":"Point","coordinates":[88.7069,27.2242]}},{"type":"Feature","properties":{"s":"Sikkim","v":3.5},"geometry":{"type":"Point","coordinates":[88.8015,27.8976]}},{"type":"Feature","properties":{"s":"Sikkim","v":3.5},"geometry":{"type":"Point","coordinates":[88.4953,27.847]}},{"type":"Feature","properties":{"s":"Sikkim","v":3.5},"geometry":{"type":"Point","coordinates":[88.6714,27.2962]}},{"type":"Feature","properties":{"s":"Sikkim","v":3.5},"geometry":{"type":"Point","coordinates":[88.8275,27.3165]}},{"type":"Feature","properties":{"s":"Sikkim","v":3.5},"geometry":{"type":"Point","coordinates":[88.6855,27.2771]}},{"type":"Feature","properties":{"s":"Sikkim","v":3.5},"geometry":{"type":"Point","coordinates":[88.681,27.2309]}},{"type":"Feature","properties":{"s":"Sikkim","v":3.5},"geometry":{"type":"Point","coordinates":[88.8195,27.7798]}},{"type":"Feature","properties":{"s":"Sikkim","v":3.5},"geometry":{"type":"Point","coordinates":[88.3827,27.6544]}},{"type":"Feature","properties":{"s":"Sikkim","v":3.5},"geometry":{"type":"Point","coordinates":[88.7633,28.0284]}},{"type":"Feature","properties":{"s":"Sikkim","v":3.5},"geometry":{"type":"Point","coordinates":[88.154,27.3187]}},{"type":"Feature","properties":{"s":"Sikkim","v":3.5},"geometry":{"type":"Point","coordinates":[88.6514,27.6692]}},{"type":"Feature","properties":{"s":"Sikkim","v":3.5},"geometry":{"type":"Point","coordinates":[88.0859,27.5065]}},{"type":"Feature","properties":{"s":"Sikkim","v":3.5},"geometry":{"type":"Point","coordinates":[88.5899,27.2984]}},{"type":"Feature","properties":{"s":"Sikkim","v":3.5},"geometry":{"type":"Point","coordinates":[88.5218,27.4324]}},{"type":"Feature","properties":{"s":"Sikkim","v":3.5},"geometry":{"type":"Point","coordinates":[88.1143,27.3578]}},{"type":"Feature","properties":{"s":"Sikkim","v":3.5},"geometry":{"type":"Point","coordinates":[88.5448,27.4635]}},{"type":"Feature","properties":{"s":"Sikkim","v":3.5},"geometry":{"type":"Point","coordinates":[88.7248,27.6105]}},{"type":"Feature","properties":{"s":"Sikkim","v":3.5},"geometry":{"type":"Point","coordinates":[88.2254,27.8512]}},{"type":"Feature","properties":{"s":"Sikkim","v":3.5},"geometry":{"type":"Point","coordinates":[88.1622,27.1376]}},{"type":"Feature","properties":{"s":"Sikkim","v":3.5},"geometry":{"type":"Point","coordinates":[88.3586,27.2793]}},{"type":"Feature","properties":{"s":"Sikkim","v":3.5},"geometry":{"type":"Point","coordinates":[88.6076,27.8279]}},{"type":"Feature","properties":{"s":"Sikkim","v":3.5},"geometry":{"type":"Point","coordinates":[88.0893,27.2846]}},{"type":"Feature","properties":{"s":"Sikkim","v":3.5},"geometry":{"type":"Point","coordinates":[88.579,27.2561]}},{"type":"Feature","properties":{"s":"Sikkim","v":3.5},"geometry":{"type":"Point","coordinates":[88.2882,27.6883]}},{"type":"Feature","properties":{"s":"Sikkim","v":3.5},"geometry":{"type":"Point","coordinates":[88.5676,27.5608]}},{"type":"Feature","properties":{"s":"Sikkim","v":3.5},"geometry":{"type":"Point","coordinates":[88.4155,27.5141]}},{"type":"Feature","properties":{"s":"Sikkim","v":3.5},"geometry":{"type":"Point","coordinates":[88.8091,27.7111]}},{"type":"Feature","properties":{"s":"Sikkim","v":3.5},"geometry":{"type":"Point","coordinates":[88.1495,27.5808]}},{"type":"Feature","properties":{"s":"Tripura","v":0.3},"geometry":{"type":"Point","coordinates":[92.1307,23.8879]}},{"type":"Feature","properties":{"s":"Tripura","v":0.3},"geometry":{"type":"Point","coordinates":[91.3545,23.6999]}},{"type":"Feature","properties":{"s":"Tripura","v":0.3},"geometry":{"type":"Point","coordinates":[92.2693,23.928]}},{"type":"Feature","properties":{"s":"Tripura","v":0.3},"geometry":{"type":"Point","coordinates":[91.6744,24.0323]}},{"type":"Feature","properties":{"s":"Tripura","v":0.3},"geometry":{"type":"Point","coordinates":[91.8922,23.4954]}},{"type":"Feature","properties":{"s":"Tripura","v":0.3},"geometry":{"type":"Point","coordinates":[91.5645,23.2465]}},{"type":"Feature","properties":{"s":"Uttarakhand","v":0.4},"geometry":{"type":"Point","coordinates":[79.5153,30.4487]}},{"type":"Feature","properties":{"s":"Uttarakhand","v":0.4},"geometry":{"type":"Point","coordinates":[79.2456,30.6001]}},{"type":"Feature","properties":{"s":"Uttarakhand","v":0.4},"geometry":{"type":"Point","coordinates":[79.7864,29.5986]}},{"type":"Feature","properties":{"s":"Uttarakhand","v":0.4},"geometry":{"type":"Point","coordinates":[79.3711,30.7032]}},{"type":"Feature","properties":{"s":"Uttarakhand","v":0.4},"geometry":{"type":"Point","coordinates":[80.0316,29.342]}},{"type":"Feature","properties":{"s":"Uttarakhand","v":0.4},"geometry":{"type":"Point","coordinates":[79.8591,30.8152]}},{"type":"Feature","properties":{"s":"Uttarakhand","v":0.4},"geometry":{"type":"Point","coordinates":[79.0311,29.7397]}},{"type":"Feature","properties":{"s":"Telangana","v":0.1},"geometry":{"type":"Point","coordinates":[78.357,19.6842]}},{"type":"Feature","properties":{"s":"Telangana","v":0.1},"geometry":{"type":"Point","coordinates":[78.402,18.75]}},{"type":"Feature","properties":{"s":"Telangana","v":0.1},"geometry":{"type":"Point","coordinates":[78.1644,17.5736]}},{"type":"Feature","properties":{"s":"Telangana","v":0.1},"geometry":{"type":"Point","coordinates":[78.6529,16.1454]}},{"type":"Feature","properties":{"s":"Telangana","v":0.1},"geometry":{"type":"Point","coordinates":[79.7074,18.8591]}},{"type":"Feature","properties":{"s":"Telangana","v":0.1},"geometry":{"type":"Point","coordinates":[79.8945,19.2917]}},{"type":"Feature","properties":{"s":"Andaman & Nicobar","v":0.3},"geometry":{"type":"Point","coordinates":[92.8701,13.0361]}},{"type":"Feature","properties":{"s":"Andaman & Nicobar","v":0.3},"geometry":{"type":"Point","coordinates":[92.8431,13.0824]}},{"type":"Feature","properties":{"s":"Andaman & Nicobar","v":0.3},"geometry":{"type":"Point","coordinates":[92.7488,11.7893]}},{"type":"Feature","properties":{"s":"Andaman & Nicobar","v":0.3},"geometry":{"type":"Point","coordinates":[92.7403,12.5412]}},{"type":"Feature","properties":{"s":"Andaman & Nicobar","v":0.3},"geometry":{"type":"Point","coordinates":[93.7693,6.8842]}},{"type":"Feature","properties":{"s":"Andaman & Nicobar","v":0.3},"geometry":{"type":"Point","coordinates":[92.9314,13.0698]}},{"type":"Feature","properties":{"s":"Bihar","v":1.1},"geometry":{"type":"Point","coordinates":[83.7038,24.805]}},{"type":"Feature","properties":{"s":"Bihar","v":1.1},"geometry":{"type":"Point","coordinates":[85.6386,26.1341]}},{"type":"Feature","properties":{"s":"Bihar","v":1.1},"geometry":{"type":"Point","coordinates":[84.6519,25.4258]}},{"type":"Feature","properties":{"s":"Bihar","v":1.1},"geometry":{"type":"Point","coordinates":[87.7021,25.875]}},{"type":"Feature","properties":{"s":"Bihar","v":1.1},"geometry":{"type":"Point","coordinates":[84.901,25.7637]}},{"type":"Feature","properties":{"s":"Bihar","v":1.1},"geometry":{"type":"Point","coordinates":[87.7801,25.8115]}},{"type":"Feature","properties":{"s":"Bihar","v":1.1},"geometry":{"type":"Point","coordinates":[85.3301,26.449]}},{"type":"Feature","properties":{"s":"Bihar","v":1.1},"geometry":{"type":"Point","coordinates":[85.345,26.5749]}},{"type":"Feature","properties":{"s":"Bihar","v":1.1},"geometry":{"type":"Point","coordinates":[83.7566,25.0957]}},{"type":"Feature","properties":{"s":"Bihar","v":1.1},"geometry":{"type":"Point","coordinates":[86.3205,25.4471]}},{"type":"Feature","properties":{"s":"Bihar","v":1.1},"geometry":{"type":"Point","coordinates":[87.8303,26.196]}},{"type":"Feature","properties":{"s":"Bihar","v":1.1},"geometry":{"type":"Point","coordinates":[84.6722,24.9968]}},{"type":"Feature","properties":{"s":"Bihar","v":1.1},"geometry":{"type":"Point","coordinates":[84.0351,25.0434]}},{"type":"Feature","properties":{"s":"Bihar","v":1.1},"geometry":{"type":"Point","coordinates":[87.0251,24.9397]}},{"type":"Feature","properties":{"s":"Bihar","v":1.1},"geometry":{"type":"Point","coordinates":[87.3729,25.477]}},{"type":"Feature","properties":{"s":"Bihar","v":1.1},"geometry":{"type":"Point","coordinates":[85.2352,25.7697]}},{"type":"Feature","properties":{"s":"Bihar","v":1.1},"geometry":{"type":"Point","coordinates":[84.4628,26.3346]}},{"type":"Feature","properties":{"s":"Bihar","v":1.1},"geometry":{"type":"Point","coordinates":[87.251,25.8795]}},{"type":"Feature","properties":{"s":"Bihar","v":1.1},"geometry":{"type":"Point","coordinates":[87.0608,25.0649]}},{"type":"Feature","properties":{"s":"Bihar","v":1.1},"geometry":{"type":"Point","coordinates":[84.125,24.8074]}},{"type":"Feature","properties":{"s":"Gujarat","v":0.1},"geometry":{"type":"Point","coordinates":[73.4266,20.794]}},{"type":"Feature","properties":{"s":"Gujarat","v":0.1},"geometry":{"type":"Point","coordinates":[73.3243,22.9073]}},{"type":"Feature","properties":{"s":"Gujarat","v":0.1},"geometry":{"type":"Point","coordinates":[72.2736,23.1487]}},{"type":"Feature","properties":{"s":"Gujarat","v":0.1},"geometry":{"type":"Point","coordinates":[69.6593,22.8311]}},{"type":"Feature","properties":{"s":"Gujarat","v":0.1},"geometry":{"type":"Point","coordinates":[71.6426,21.3211]}},{"type":"Feature","properties":{"s":"Gujarat","v":0.1},"geometry":{"type":"Point","coordinates":[72.7892,21.3984]}},{"type":"Feature","properties":{"s":"Kerala","v":0},"geometry":{"type":"Point","coordinates":[76.0838,11.7094]}},{"type":"Feature","properties":{"s":"Kerala","v":0},"geometry":{"type":"Point","coordinates":[75.6179,11.8592]}},{"type":"Feature","properties":{"s":"Kerala","v":0},"geometry":{"type":"Point","coordinates":[76.0425,11.6731]}},{"type":"Feature","properties":{"s":"Kerala","v":0},"geometry":{"type":"Point","coordinates":[76.2284,10.7734]}},{"type":"Feature","properties":{"s":"Kerala","v":0},"geometry":{"type":"Point","coordinates":[76.276,9.8918]}},{"type":"Feature","properties":{"s":"Kerala","v":0},"geometry":{"type":"Point","coordinates":[76.3309,11.0542]}},{"type":"Feature","properties":{"s":"Lakshadweep","v":0},"geometry":{"type":"Point","coordinates":[73.053,8.281]}},{"type":"Feature","properties":{"s":"Lakshadweep","v":0},"geometry":{"type":"Point","coordinates":[73.0574,8.2776]}},{"type":"Feature","properties":{"s":"Lakshadweep","v":0},"geometry":{"type":"Point","coordinates":[73.0613,8.2861]}},{"type":"Feature","properties":{"s":"Lakshadweep","v":0},"geometry":{"type":"Point","coordinates":[73.0568,8.2851]}},{"type":"Feature","properties":{"s":"Lakshadweep","v":0},"geometry":{"type":"Point","coordinates":[73.0636,8.2841]}},{"type":"Feature","properties":{"s":"Lakshadweep","v":0},"geometry":{"type":"Point","coordinates":[73.05,8.2774]}},{"type":"Feature","properties":{"s":"Madhya Pradesh","v":0.4},"geometry":{"type":"Point","coordinates":[79.178,21.9023]}},{"type":"Feature","properties":{"s":"Madhya Pradesh","v":0.4},"geometry":{"type":"Point","coordinates":[78.4347,23.967]}},{"type":"Feature","properties":{"s":"Madhya Pradesh","v":0.4},"geometry":{"type":"Point","coordinates":[77.03,24.0577]}},{"type":"Feature","properties":{"s":"Madhya Pradesh","v":0.4},"geometry":{"type":"Point","coordinates":[81.6116,23.0781]}},{"type":"Feature","properties":{"s":"Madhya Pradesh","v":0.4},"geometry":{"type":"Point","coordinates":[81.0522,23.4155]}},{"type":"Feature","properties":{"s":"Madhya Pradesh","v":0.4},"geometry":{"type":"Point","coordinates":[75.7502,23.3461]}},{"type":"Feature","properties":{"s":"Madhya Pradesh","v":0.4},"geometry":{"type":"Point","coordinates":[81.0708,22.3682]}},{"type":"Feature","properties":{"s":"Odisha","v":0.2},"geometry":{"type":"Point","coordinates":[85.51,20.2573]}},{"type":"Feature","properties":{"s":"Odisha","v":0.2},"geometry":{"type":"Point","coordinates":[85.221,20.596]}},{"type":"Feature","properties":{"s":"Odisha","v":0.2},"geometry":{"type":"Point","coordinates":[86.4073,21.8653]}},{"type":"Feature","properties":{"s":"Odisha","v":0.2},"geometry":{"type":"Point","coordinates":[82.5519,19.2234]}},{"type":"Feature","properties":{"s":"Odisha","v":0.2},"geometry":{"type":"Point","coordinates":[84.0376,20.1598]}},{"type":"Feature","properties":{"s":"Odisha","v":0.2},"geometry":{"type":"Point","coordinates":[83.2022,21.0983]}},{"type":"Feature","properties":{"s":"Tamil Nadu","v":0.2},"geometry":{"type":"Point","coordinates":[77.3411,9.3228]}},{"type":"Feature","properties":{"s":"Tamil Nadu","v":0.2},"geometry":{"type":"Point","coordinates":[80.0726,13.0861]}},{"type":"Feature","properties":{"s":"Tamil Nadu","v":0.2},"geometry":{"type":"Point","coordinates":[79.7026,10.4808]}},{"type":"Feature","properties":{"s":"Tamil Nadu","v":0.2},"geometry":{"type":"Point","coordinates":[78.3766,9.594]}},{"type":"Feature","properties":{"s":"Tamil Nadu","v":0.2},"geometry":{"type":"Point","coordinates":[78.7678,10.4624]}},{"type":"Feature","properties":{"s":"Tamil Nadu","v":0.2},"geometry":{"type":"Point","coordinates":[79.6768,11.3227]}},{"type":"Feature","properties":{"s":"Uttar Pradesh","v":1.2},"geometry":{"type":"Point","coordinates":[80.2003,26.9219]}},{"type":"Feature","properties":{"s":"Uttar Pradesh","v":1.2},"geometry":{"type":"Point","coordinates":[82.7763,26.2859]}},{"type":"Feature","properties":{"s":"Uttar Pradesh","v":1.2},"geometry":{"type":"Point","coordinates":[82.3534,26.9638]}},{"type":"Feature","properties":{"s":"Uttar Pradesh","v":1.2},"geometry":{"type":"Point","coordinates":[78.5147,26.8427]}},{"type":"Feature","properties":{"s":"Uttar Pradesh","v":1.2},"geometry":{"type":"Point","coordinates":[81.8467,27.8172]}},{"type":"Feature","properties":{"s":"Uttar Pradesh","v":1.2},"geometry":{"type":"Point","coordinates":[77.874,27.9481]}},{"type":"Feature","properties":{"s":"Uttar Pradesh","v":1.2},"geometry":{"type":"Point","coordinates":[82.3647,27.4619]}},{"type":"Feature","properties":{"s":"Uttar Pradesh","v":1.2},"geometry":{"type":"Point","coordinates":[80.0372,28.3109]}},{"type":"Feature","properties":{"s":"Uttar Pradesh","v":1.2},"geometry":{"type":"Point","coordinates":[83.9046,26.1539]}},{"type":"Feature","properties":{"s":"Uttar Pradesh","v":1.2},"geometry":{"type":"Point","coordinates":[83.2856,25.0343]}},{"type":"Feature","properties":{"s":"Uttar Pradesh","v":1.2},"geometry":{"type":"Point","coordinates":[79.1156,26.7187]}},{"type":"Feature","properties":{"s":"Uttar Pradesh","v":1.2},"geometry":{"type":"Point","coordinates":[79.6102,27.3425]}},{"type":"Feature","properties":{"s":"Uttar Pradesh","v":1.2},"geometry":{"type":"Point","coordinates":[78.1506,27.5041]}},{"type":"Feature","properties":{"s":"Uttar Pradesh","v":1.2},"geometry":{"type":"Point","coordinates":[81.3756,27.5646]}},{"type":"Feature","properties":{"s":"Uttar Pradesh","v":1.2},"geometry":{"type":"Point","coordinates":[79.7245,25.571]}},{"type":"Feature","properties":{"s":"Uttar Pradesh","v":1.2},"geometry":{"type":"Point","coordinates":[81.0752,25.4436]}},{"type":"Feature","properties":{"s":"Uttar Pradesh","v":1.2},"geometry":{"type":"Point","coordinates":[80.6683,27.8317]}},{"type":"Feature","properties":{"s":"Uttar Pradesh","v":1.2},"geometry":{"type":"Point","coordinates":[80.352,25.282]}},{"type":"Feature","properties":{"s":"Uttar Pradesh","v":1.2},"geometry":{"type":"Point","coordinates":[79.1774,27.9044]}},{"type":"Feature","properties":{"s":"Uttar Pradesh","v":1.2},"geometry":{"type":"Point","coordinates":[79.4648,26.2174]}},{"type":"Feature","properties":{"s":"Uttar Pradesh","v":1.2},"geometry":{"type":"Point","coordinates":[80.8932,25.832]}},{"type":"Feature","properties":{"s":"Uttar Pradesh","v":1.2},"geometry":{"type":"Point","coordinates":[80.2654,26.3782]}},{"type":"Feature","properties":{"s":"West Bengal","v":0.7},"geometry":{"type":"Point","coordinates":[86.5926,22.912]}},{"type":"Feature","properties":{"s":"West Bengal","v":0.7},"geometry":{"type":"Point","coordinates":[87.9259,24.5964]}},{"type":"Feature","properties":{"s":"West Bengal","v":0.7},"geometry":{"type":"Point","coordinates":[87.7317,22.1654]}},{"type":"Feature","properties":{"s":"West Bengal","v":0.7},"geometry":{"type":"Point","coordinates":[88.3126,25.1947]}},{"type":"Feature","properties":{"s":"West Bengal","v":0.7},"geometry":{"type":"Point","coordinates":[87.9621,25.4327]}},{"type":"Feature","properties":{"s":"West Bengal","v":0.7},"geometry":{"type":"Point","coordinates":[88.3528,22.108]}},{"type":"Feature","properties":{"s":"West Bengal","v":0.7},"geometry":{"type":"Point","coordinates":[88.8209,22.5758]}},{"type":"Feature","properties":{"s":"West Bengal","v":0.7},"geometry":{"type":"Point","coordinates":[88.1422,22.3096]}},{"type":"Feature","properties":{"s":"West Bengal","v":0.7},"geometry":{"type":"Point","coordinates":[88.0746,27.0411]}},{"type":"Feature","properties":{"s":"West Bengal","v":0.7},"geometry":{"type":"Point","coordinates":[87.5662,23.6302]}},{"type":"Feature","properties":{"s":"West Bengal","v":0.7},"geometry":{"type":"Point","coordinates":[87.7755,22.7872]}},{"type":"Feature","properties":{"s":"West Bengal","v":0.7},"geometry":{"type":"Point","coordinates":[88.254,25.7472]}},{"type":"Feature","properties":{"s":"West Bengal","v":0.7},"geometry":{"type":"Point","coordinates":[87.997,23.7021]}},{"type":"Feature","properties":{"s":"Andhra Pradesh","v":0},"geometry":{"type":"Point","coordinates":[78.982,15.0132]}},{"type":"Feature","properties":{"s":"Andhra Pradesh","v":0},"geometry":{"type":"Point","coordinates":[77.9302,14.2595]}},{"type":"Feature","properties":{"s":"Andhra Pradesh","v":0},"geometry":{"type":"Point","coordinates":[83.3216,18.2633]}},{"type":"Feature","properties":{"s":"Andhra Pradesh","v":0},"geometry":{"type":"Point","coordinates":[82.035,16.8038]}},{"type":"Feature","properties":{"s":"Andhra Pradesh","v":0},"geometry":{"type":"Point","coordinates":[80.0549,16.1598]}},{"type":"Feature","properties":{"s":"Andhra Pradesh","v":0},"geometry":{"type":"Point","coordinates":[82.8166,17.9875]}},{"type":"Feature","properties":{"s":"Puducherry","v":0.4},"geometry":{"type":"Point","coordinates":[79.813,10.9673]}},{"type":"Feature","properties":{"s":"Puducherry","v":0.4},"geometry":{"type":"Point","coordinates":[79.8301,10.9325]}},{"type":"Feature","properties":{"s":"Puducherry","v":0.4},"geometry":{"type":"Point","coordinates":[79.8282,11.916]}},{"type":"Feature","properties":{"s":"Puducherry","v":0.4},"geometry":{"type":"Point","coordinates":[79.844,10.9704]}},{"type":"Feature","properties":{"s":"Puducherry","v":0.4},"geometry":{"type":"Point","coordinates":[79.7954,10.9611]}},{"type":"Feature","properties":{"s":"Puducherry","v":0.4},"geometry":{"type":"Point","coordinates":[79.8228,11.9313]}},{"type":"Feature","properties":{"s":"Puducherry","v":0.4},"geometry":{"type":"Point","coordinates":[79.7571,11.9046]}},{"type":"Feature","properties":{"s":"Maharashtra","v":0.2},"geometry":{"type":"Point","coordinates":[75.0489,19.5538]}},{"type":"Feature","properties":{"s":"Maharashtra","v":0.2},"geometry":{"type":"Point","coordinates":[75.8076,20.569]}},{"type":"Feature","properties":{"s":"Maharashtra","v":0.2},"geometry":{"type":"Point","coordinates":[75.5062,21.2283]}},{"type":"Feature","properties":{"s":"Maharashtra","v":0.2},"geometry":{"type":"Point","coordinates":[80.0226,20.3792]}},{"type":"Feature","properties":{"s":"Maharashtra","v":0.2},"geometry":{"type":"Point","coordinates":[79.4165,21.1984]}},{"type":"Feature","properties":{"s":"Maharashtra","v":0.2},"geometry":{"type":"Point","coordinates":[76.6739,18.3184]}},{"type":"Feature","properties":{"s":"Daman & Diu","v":0.9},"geometry":{"type":"Point","coordinates":[72.838,20.4024]}},{"type":"Feature","properties":{"s":"Daman & Diu","v":0.9},"geometry":{"type":"Point","coordinates":[72.8427,20.4249]}},{"type":"Feature","properties":{"s":"Daman & Diu","v":0.9},"geometry":{"type":"Point","coordinates":[72.8476,20.4185]}},{"type":"Feature","properties":{"s":"Daman & Diu","v":0.9},"geometry":{"type":"Point","coordinates":[72.8542,20.4244]}},{"type":"Feature","properties":{"s":"Daman & Diu","v":0.9},"geometry":{"type":"Point","coordinates":[72.8412,20.4093]}},{"type":"Feature","properties":{"s":"Daman & Diu","v":0.9},"geometry":{"type":"Point","coordinates":[72.8556,20.464]}},{"type":"Feature","properties":{"s":"Daman & Diu","v":0.9},"geometry":{"type":"Point","coordinates":[72.8505,20.4203]}},{"type":"Feature","properties":{"s":"Daman & Diu","v":0.9},"geometry":{"type":"Point","coordinates":[72.8513,20.444]}},{"type":"Feature","properties":{"s":"Daman & Diu","v":0.9},"geometry":{"type":"Point","coordinates":[72.8509,20.4197]}},{"type":"Feature","properties":{"s":"Daman & Diu","v":0.9},"geometry":{"type":"Point","coordinates":[72.8539,20.4529]}},{"type":"Feature","properties":{"s":"Daman & Diu","v":0.9},"geometry":{"type":"Point","coordinates":[72.855,20.4655]}},{"type":"Feature","properties":{"s":"Daman & Diu","v":0.9},"geometry":{"type":"Point","coordinates":[72.8517,20.4255]}},{"type":"Feature","properties":{"s":"Daman & Diu","v":0.9},"geometry":{"type":"Point","coordinates":[72.8433,20.4064]}},{"type":"Feature","properties":{"s":"Daman & Diu","v":0.9},"geometry":{"type":"Point","coordinates":[72.8484,20.4433]}},{"type":"Feature","properties":{"s":"Daman & Diu","v":0.9},"geometry":{"type":"Point","coordinates":[72.8379,20.3918]}},{"type":"Feature","properties":{"s":"Daman & Diu","v":0.9},"geometry":{"type":"Point","coordinates":[72.8526,20.4245]}},{"type":"Feature","properties":{"s":"Dadra & Nagar Haveli","v":0.9},"geometry":{"type":"Point","coordinates":[72.997,20.2324]}},{"type":"Feature","properties":{"s":"Dadra & Nagar Haveli","v":0.9},"geometry":{"type":"Point","coordinates":[72.983,20.2422]}},{"type":"Feature","properties":{"s":"Dadra & Nagar Haveli","v":0.9},"geometry":{"type":"Point","coordinates":[72.932,20.2593]}},{"type":"Feature","properties":{"s":"Dadra & Nagar Haveli","v":0.9},"geometry":{"type":"Point","coordinates":[73.0387,20.1495]}},{"type":"Feature","properties":{"s":"Dadra & Nagar Haveli","v":0.9},"geometry":{"type":"Point","coordinates":[73.045,20.2092]}},{"type":"Feature","properties":{"s":"Dadra & Nagar Haveli","v":0.9},"geometry":{"type":"Point","coordinates":[73.0232,20.1709]}},{"type":"Feature","properties":{"s":"Dadra & Nagar Haveli","v":0.9},"geometry":{"type":"Point","coordinates":[73.0421,20.2375]}},{"type":"Feature","properties":{"s":"Dadra & Nagar Haveli","v":0.9},"geometry":{"type":"Point","coordinates":[73.17,20.1088]}},{"type":"Feature","properties":{"s":"Dadra & Nagar Haveli","v":0.9},"geometry":{"type":"Point","coordinates":[73.1052,20.2599]}},{"type":"Feature","properties":{"s":"Dadra & Nagar Haveli","v":0.9},"geometry":{"type":"Point","coordinates":[73.0069,20.2606]}},{"type":"Feature","properties":{"s":"Dadra & Nagar Haveli","v":0.9},"geometry":{"type":"Point","coordinates":[73.1472,20.1351]}},{"type":"Feature","properties":{"s":"Dadra & Nagar Haveli","v":0.9},"geometry":{"type":"Point","coordinates":[73.0982,20.109]}},{"type":"Feature","properties":{"s":"Dadra & Nagar Haveli","v":0.9},"geometry":{"type":"Point","coordinates":[73.1443,20.1363]}},{"type":"Feature","properties":{"s":"Dadra & Nagar Haveli","v":0.9},"geometry":{"type":"Point","coordinates":[73.0819,20.2266]}},{"type":"Feature","properties":{"s":"Dadra & Nagar Haveli","v":0.9},"geometry":{"type":"Point","coordinates":[73.1088,20.1105]}},{"type":"Feature","properties":{"s":"Dadra & Nagar Haveli","v":0.9},"geometry":{"type":"Point","coordinates":[73.06,20.1199]}},{"type":"Feature","properties":{"s":"Ladakh","v":6.2},"geometry":{"type":"Point","coordinates":[76.4131,34.413]}},{"type":"Feature","properties":{"s":"Ladakh","v":6.2},"geometry":{"type":"Point","coordinates":[79.475,34.3592]}},{"type":"Feature","properties":{"s":"Ladakh","v":6.2},"geometry":{"type":"Point","coordinates":[76.768,33.8455]}},{"type":"Feature","properties":{"s":"Ladakh","v":6.2},"geometry":{"type":"Point","coordinates":[72.9195,35.8832]}},{"type":"Feature","properties":{"s":"Ladakh","v":6.2},"geometry":{"type":"Point","coordinates":[73.2535,35.8984]}},{"type":"Feature","properties":{"s":"Ladakh","v":6.2},"geometry":{"type":"Point","coordinates":[77.0552,34.5354]}},{"type":"Feature","properties":{"s":"Ladakh","v":6.2},"geometry":{"type":"Point","coordinates":[76.935,34.6356]}},{"type":"Feature","properties":{"s":"Ladakh","v":6.2},"geometry":{"type":"Point","coordinates":[78.4932,32.8789]}},{"type":"Feature","properties":{"s":"Ladakh","v":6.2},"geometry":{"type":"Point","coordinates":[74.9188,35.6209]}},{"type":"Feature","properties":{"s":"Ladakh","v":6.2},"geometry":{"type":"Point","coordinates":[78.7145,32.6729]}},{"type":"Feature","properties":{"s":"Ladakh","v":6.2},"geometry":{"type":"Point","coordinates":[73.3474,36.1132]}},{"type":"Feature","properties":{"s":"Ladakh","v":6.2},"geometry":{"type":"Point","coordinates":[79.1323,35.1056]}},{"type":"Feature","properties":{"s":"Ladakh","v":6.2},"geometry":{"type":"Point","coordinates":[77.5566,34.5627]}},{"type":"Feature","properties":{"s":"Ladakh","v":6.2},"geometry":{"type":"Point","coordinates":[78.4449,32.6291]}},{"type":"Feature","properties":{"s":"Ladakh","v":6.2},"geometry":{"type":"Point","coordinates":[77.9371,34.7694]}},{"type":"Feature","properties":{"s":"Ladakh","v":6.2},"geometry":{"type":"Point","coordinates":[75.0675,36.8642]}},{"type":"Feature","properties":{"s":"Ladakh","v":6.2},"geometry":{"type":"Point","coordinates":[74.2883,36.6458]}},{"type":"Feature","properties":{"s":"Ladakh","v":6.2},"geometry":{"type":"Point","coordinates":[73.7784,36.8669]}},{"type":"Feature","properties":{"s":"Ladakh","v":6.2},"geometry":{"type":"Point","coordinates":[76.6691,34.1139]}},{"type":"Feature","properties":{"s":"Ladakh","v":6.2},"geometry":{"type":"Point","coordinates":[73.1759,36.6073]}},{"type":"Feature","properties":{"s":"Ladakh","v":6.2},"geometry":{"type":"Point","coordinates":[78.3896,33.4739]}},{"type":"Feature","properties":{"s":"Ladakh","v":6.2},"geometry":{"type":"Point","coordinates":[74.934,36.5177]}},{"type":"Feature","properties":{"s":"Ladakh","v":6.2},"geometry":{"type":"Point","coordinates":[74.7755,35.1615]}},{"type":"Feature","properties":{"s":"Ladakh","v":6.2},"geometry":{"type":"Point","coordinates":[77.2532,34.0897]}},{"type":"Feature","properties":{"s":"Ladakh","v":6.2},"geometry":{"type":"Point","coordinates":[76.4332,35.1035]}},{"type":"Feature","properties":{"s":"Ladakh","v":6.2},"geometry":{"type":"Point","coordinates":[78.3477,32.8881]}},{"type":"Feature","properties":{"s":"Ladakh","v":6.2},"geometry":{"type":"Point","coordinates":[76.7285,35.6968]}},{"type":"Feature","properties":{"s":"Ladakh","v":6.2},"geometry":{"type":"Point","coordinates":[78.7152,35.6428]}},{"type":"Feature","properties":{"s":"Ladakh","v":6.2},"geometry":{"type":"Point","coordinates":[76.7934,33.5821]}},{"type":"Feature","properties":{"s":"Ladakh","v":6.2},"geometry":{"type":"Point","coordinates":[75.4975,35.1169]}},{"type":"Feature","properties":{"s":"Ladakh","v":6.2},"geometry":{"type":"Point","coordinates":[75.8502,35.1941]}},{"type":"Feature","properties":{"s":"Ladakh","v":6.2},"geometry":{"type":"Point","coordinates":[78.4245,34.4073]}},{"type":"Feature","properties":{"s":"Ladakh","v":6.2},"geometry":{"type":"Point","coordinates":[77.1692,33.1909]}},{"type":"Feature","properties":{"s":"Ladakh","v":6.2},"geometry":{"type":"Point","coordinates":[79.619,34.811]}},{"type":"Feature","properties":{"s":"Ladakh","v":6.2},"geometry":{"type":"Point","coordinates":[80.2146,35.5474]}},{"type":"Feature","properties":{"s":"Ladakh","v":6.2},"geometry":{"type":"Point","coordinates":[79.0328,32.8791]}},{"type":"Feature","properties":{"s":"Ladakh","v":6.2},"geometry":{"type":"Point","coordinates":[76.522,36.0128]}},{"type":"Feature","properties":{"s":"Ladakh","v":6.2},"geometry":{"type":"Point","coordinates":[74.1435,36.4093]}},{"type":"Feature","properties":{"s":"Ladakh","v":6.2},"geometry":{"type":"Point","coordinates":[76.0222,35.9149]}},{"type":"Feature","properties":{"s":"Ladakh","v":6.2},"geometry":{"type":"Point","coordinates":[74.1171,36.6465]}},{"type":"Feature","properties":{"s":"Ladakh","v":6.2},"geometry":{"type":"Point","coordinates":[73.8618,36.7621]}},{"type":"Feature","properties":{"s":"Ladakh","v":6.2},"geometry":{"type":"Point","coordinates":[74.9289,34.878]}},{"type":"Feature","properties":{"s":"Ladakh","v":6.2},"geometry":{"type":"Point","coordinates":[74.8057,36.1164]}},{"type":"Feature","properties":{"s":"Ladakh","v":6.2},"geometry":{"type":"Point","coordinates":[78.2751,33.2646]}},{"type":"Feature","properties":{"s":"Ladakh","v":6.2},"geometry":{"type":"Point","coordinates":[78.5381,33.6747]}},{"type":"Feature","properties":{"s":"Ladakh","v":6.2},"geometry":{"type":"Point","coordinates":[77.8076,33.2829]}},{"type":"Feature","properties":{"s":"Ladakh","v":6.2},"geometry":{"type":"Point","coordinates":[79.1065,35.7957]}},{"type":"Feature","properties":{"s":"Ladakh","v":6.2},"geometry":{"type":"Point","coordinates":[78.8779,34.0619]}},{"type":"Feature","properties":{"s":"Ladakh","v":6.2},"geometry":{"type":"Point","coordinates":[78.3238,33.2072]}},{"type":"Feature","properties":{"s":"Ladakh","v":6.2},"geometry":{"type":"Point","coordinates":[80.0724,35.3166]}},{"type":"Feature","properties":{"s":"Ladakh","v":6.2},"geometry":{"type":"Point","coordinates":[74.3545,36.6239]}},{"type":"Feature","properties":{"s":"Ladakh","v":6.2},"geometry":{"type":"Point","coordinates":[77.1212,34.5304]}},{"type":"Feature","properties":{"s":"Ladakh","v":6.2},"geometry":{"type":"Point","coordinates":[78.8793,35.3274]}},{"type":"Feature","properties":{"s":"Ladakh","v":6.2},"geometry":{"type":"Point","coordinates":[79.1628,32.9405]}},{"type":"Feature","properties":{"s":"Ladakh","v":6.2},"geometry":{"type":"Point","coordinates":[73.5502,36.1913]}},{"type":"Feature","properties":{"s":"Ladakh","v":6.2},"geometry":{"type":"Point","coordinates":[78.5728,34.2077]}},{"type":"Feature","properties":{"s":"Ladakh","v":6.2},"geometry":{"type":"Point","coordinates":[74.6305,36.6168]}},{"type":"Feature","properties":{"s":"Ladakh","v":6.2},"geometry":{"type":"Point","coordinates":[77.4085,33.6441]}},{"type":"Feature","properties":{"s":"Ladakh","v":6.2},"geometry":{"type":"Point","coordinates":[75.7066,35.5048]}},{"type":"Feature","properties":{"s":"Ladakh","v":6.2},"geometry":{"type":"Point","coordinates":[75.2075,36.9092]}},{"type":"Feature","properties":{"s":"Ladakh","v":6.2},"geometry":{"type":"Point","coordinates":[76.5089,35.488]}},{"type":"Feature","properties":{"s":"Ladakh","v":6.2},"geometry":{"type":"Point","coordinates":[74.3844,35.4845]}},{"type":"Feature","properties":{"s":"Ladakh","v":6.2},"geometry":{"type":"Point","coordinates":[77.457,34.0594]}},{"type":"Feature","properties":{"s":"Ladakh","v":6.2},"geometry":{"type":"Point","coordinates":[75.1591,35.7911]}},{"type":"Feature","properties":{"s":"Ladakh","v":6.2},"geometry":{"type":"Point","coordinates":[79.6075,34.9499]}},{"type":"Feature","properties":{"s":"Ladakh","v":6.2},"geometry":{"type":"Point","coordinates":[74.6071,35.353]}},{"type":"Feature","properties":{"s":"Ladakh","v":6.2},"geometry":{"type":"Point","coordinates":[73.5219,36.2535]}},{"type":"Feature","properties":{"s":"Ladakh","v":6.2},"geometry":{"type":"Point","coordinates":[76.1464,34.5861]}},{"type":"Feature","properties":{"s":"Ladakh","v":6.2},"geometry":{"type":"Point","coordinates":[78.7246,34.0258]}},{"type":"Feature","properties":{"s":"Ladakh","v":6.2},"geometry":{"type":"Point","coordinates":[76.8768,33.1428]}},{"type":"Feature","properties":{"s":"Ladakh","v":6.2},"geometry":{"type":"Point","coordinates":[78.4125,33.3441]}},{"type":"Feature","properties":{"s":"Ladakh","v":6.2},"geometry":{"type":"Point","coordinates":[74.8654,36.7374]}},{"type":"Feature","properties":{"s":"Ladakh","v":6.2},"geometry":{"type":"Point","coordinates":[78.7532,35.0883]}},{"type":"Feature","properties":{"s":"Ladakh","v":6.2},"geometry":{"type":"Point","coordinates":[75.29,35.2704]}},{"type":"Feature","properties":{"s":"Ladakh","v":6.2},"geometry":{"type":"Point","coordinates":[79.6527,35.6167]}},{"type":"Feature","properties":{"s":"Ladakh","v":6.2},"geometry":{"type":"Point","coordinates":[75.4768,36.1526]}},{"type":"Feature","properties":{"s":"Ladakh","v":6.2},"geometry":{"type":"Point","coordinates":[76.7107,34.0004]}},{"type":"Feature","properties":{"s":"Ladakh","v":6.2},"geometry":{"type":"Point","coordinates":[77.3697,33.298]}},{"type":"Feature","properties":{"s":"Ladakh","v":6.2},"geometry":{"type":"Point","coordinates":[74.5326,36.3]}},{"type":"Feature","properties":{"s":"Ladakh","v":6.2},"geometry":{"type":"Point","coordinates":[78.5808,34.0422]}},{"type":"Feature","properties":{"s":"Ladakh","v":6.2},"geometry":{"type":"Point","coordinates":[73.3512,35.7756]}},{"type":"Feature","properties":{"s":"Ladakh","v":6.2},"geometry":{"type":"Point","coordinates":[75.486,34.4525]}},{"type":"Feature","properties":{"s":"Ladakh","v":6.2},"geometry":{"type":"Point","coordinates":[76.7963,33.3918]}},{"type":"Feature","properties":{"s":"Ladakh","v":6.2},"geometry":{"type":"Point","coordinates":[78.2349,33.5765]}},{"type":"Feature","properties":{"s":"Ladakh","v":6.2},"geometry":{"type":"Point","coordinates":[79.6961,34.8456]}},{"type":"Feature","properties":{"s":"Ladakh","v":6.2},"geometry":{"type":"Point","coordinates":[74.5896,35.228]}},{"type":"Feature","properties":{"s":"Ladakh","v":6.2},"geometry":{"type":"Point","coordinates":[74.6165,35.3516]}},{"type":"Feature","properties":{"s":"Ladakh","v":6.2},"geometry":{"type":"Point","coordinates":[79.6127,35.707]}},{"type":"Feature","properties":{"s":"Ladakh","v":6.2},"geometry":{"type":"Point","coordinates":[74.6384,36.8273]}},{"type":"Feature","properties":{"s":"Ladakh","v":6.2},"geometry":{"type":"Point","coordinates":[80.0701,34.8917]}},{"type":"Feature","properties":{"s":"Ladakh","v":6.2},"geometry":{"type":"Point","coordinates":[77.2873,33.7787]}},{"type":"Feature","properties":{"s":"Ladakh","v":6.2},"geometry":{"type":"Point","coordinates":[75.7749,35.8395]}},{"type":"Feature","properties":{"s":"Ladakh","v":6.2},"geometry":{"type":"Point","coordinates":[79.3188,35.4208]}},{"type":"Feature","properties":{"s":"Ladakh","v":6.2},"geometry":{"type":"Point","coordinates":[76.098,34.967]}},{"type":"Feature","properties":{"s":"Ladakh","v":6.2},"geometry":{"type":"Point","coordinates":[77.7111,35.3135]}},{"type":"Feature","properties":{"s":"Ladakh","v":6.2},"geometry":{"type":"Point","coordinates":[75.6861,36.2553]}},{"type":"Feature","properties":{"s":"Ladakh","v":6.2},"geometry":{"type":"Point","coordinates":[78.4941,32.7152]}},{"type":"Feature","properties":{"s":"Ladakh","v":6.2},"geometry":{"type":"Point","coordinates":[79.3823,32.6359]}},{"type":"Feature","properties":{"s":"Ladakh","v":6.2},"geometry":{"type":"Point","coordinates":[75.1354,36.2575]}},{"type":"Feature","properties":{"s":"Ladakh","v":6.2},"geometry":{"type":"Point","coordinates":[77.8081,33.599]}},{"type":"Feature","properties":{"s":"Ladakh","v":6.2},"geometry":{"type":"Point","coordinates":[74.7083,34.7705]}},{"type":"Feature","properties":{"s":"Ladakh","v":6.2},"geometry":{"type":"Point","coordinates":[78.5511,32.8847]}},{"type":"Feature","properties":{"s":"Ladakh","v":6.2},"geometry":{"type":"Point","coordinates":[76.8912,33.7312]}},{"type":"Feature","properties":{"s":"Ladakh","v":6.2},"geometry":{"type":"Point","coordinates":[78.7849,32.74]}},{"type":"Feature","properties":{"s":"Ladakh","v":6.2},"geometry":{"type":"Point","coordinates":[76.0409,34.6676]}},{"type":"Feature","properties":{"s":"Ladakh","v":6.2},"geometry":{"type":"Point","coordinates":[78.2937,34.5342]}},{"type":"Feature","properties":{"s":"Ladakh","v":6.2},"geometry":{"type":"Point","coordinates":[75.6958,35.2176]}},{"type":"Feature","properties":{"s":"Ladakh","v":6.2},"geometry":{"type":"Point","coordinates":[79.2829,32.9627]}},{"type":"Feature","properties":{"s":"Ladakh","v":6.2},"geometry":{"type":"Point","coordinates":[79.2505,32.5532]}},{"type":"Feature","properties":{"s":"Ladakh","v":6.2},"geometry":{"type":"Point","coordinates":[73.9914,36.7337]}},{"type":"Feature","properties":{"s":"Ladakh","v":6.2},"geometry":{"type":"Point","coordinates":[78.8089,34.0107]}},{"type":"Feature","properties":{"s":"Ladakh","v":6.2},"geometry":{"type":"Point","coordinates":[76.7995,34.4972]}},{"type":"Feature","properties":{"s":"Jammu & Kashmir","v":3.6},"geometry":{"type":"Point","coordinates":[74.6127,34.3978]}},{"type":"Feature","properties":{"s":"Jammu & Kashmir","v":3.6},"geometry":{"type":"Point","coordinates":[75.6056,33.4161]}},{"type":"Feature","properties":{"s":"Jammu & Kashmir","v":3.6},"geometry":{"type":"Point","coordinates":[73.9127,34.3367]}},{"type":"Feature","properties":{"s":"Jammu & Kashmir","v":3.6},"geometry":{"type":"Point","coordinates":[74.0264,34.7824]}},{"type":"Feature","properties":{"s":"Jammu & Kashmir","v":3.6},"geometry":{"type":"Point","coordinates":[73.7467,34.5245]}},{"type":"Feature","properties":{"s":"Jammu & Kashmir","v":3.6},"geometry":{"type":"Point","coordinates":[73.6453,33.3965]}},{"type":"Feature","properties":{"s":"Jammu & Kashmir","v":3.6},"geometry":{"type":"Point","coordinates":[75.0772,33.281]}},{"type":"Feature","properties":{"s":"Jammu & Kashmir","v":3.6},"geometry":{"type":"Point","coordinates":[74.3103,34.7635]}},{"type":"Feature","properties":{"s":"Jammu & Kashmir","v":3.6},"geometry":{"type":"Point","coordinates":[75.2391,34.3579]}},{"type":"Feature","properties":{"s":"Jammu & Kashmir","v":3.6},"geometry":{"type":"Point","coordinates":[76.2653,33.3703]}},{"type":"Feature","properties":{"s":"Jammu & Kashmir","v":3.6},"geometry":{"type":"Point","coordinates":[74.839,32.6663]}},{"type":"Feature","properties":{"s":"Jammu & Kashmir","v":3.6},"geometry":{"type":"Point","coordinates":[75.2044,32.7755]}},{"type":"Feature","properties":{"s":"Jammu & Kashmir","v":3.6},"geometry":{"type":"Point","coordinates":[75.9318,33.0142]}},{"type":"Feature","properties":{"s":"Jammu & Kashmir","v":3.6},"geometry":{"type":"Point","coordinates":[76.4325,33.4337]}},{"type":"Feature","properties":{"s":"Jammu & Kashmir","v":3.6},"geometry":{"type":"Point","coordinates":[74.9722,32.5798]}},{"type":"Feature","properties":{"s":"Jammu & Kashmir","v":3.6},"geometry":{"type":"Point","coordinates":[75.3479,33.5908]}},{"type":"Feature","properties":{"s":"Jammu & Kashmir","v":3.6},"geometry":{"type":"Point","coordinates":[74.2455,35.0249]}},{"type":"Feature","properties":{"s":"Jammu & Kashmir","v":3.6},"geometry":{"type":"Point","coordinates":[74.0082,33.6276]}},{"type":"Feature","properties":{"s":"Jammu & Kashmir","v":3.6},"geometry":{"type":"Point","coordinates":[76.0103,33.2536]}},{"type":"Feature","properties":{"s":"Jammu & Kashmir","v":3.6},"geometry":{"type":"Point","coordinates":[74.3265,34.1439]}},{"type":"Feature","properties":{"s":"Jammu & Kashmir","v":3.6},"geometry":{"type":"Point","coordinates":[75.4504,33.7089]}},{"type":"Feature","properties":{"s":"Jammu & Kashmir","v":3.6},"geometry":{"type":"Point","coordinates":[75.5764,33.1289]}},{"type":"Feature","properties":{"s":"Jammu & Kashmir","v":3.6},"geometry":{"type":"Point","coordinates":[75.1768,33.3251]}},{"type":"Feature","properties":{"s":"Jammu & Kashmir","v":3.6},"geometry":{"type":"Point","coordinates":[75.0313,33.1322]}},{"type":"Feature","properties":{"s":"Jammu & Kashmir","v":3.6},"geometry":{"type":"Point","coordinates":[75.7333,33.7137]}},{"type":"Feature","properties":{"s":"Jammu & Kashmir","v":3.6},"geometry":{"type":"Point","coordinates":[76.0019,33.2825]}},{"type":"Feature","properties":{"s":"Jammu & Kashmir","v":3.6},"geometry":{"type":"Point","coordinates":[75.5477,33.9139]}},{"type":"Feature","properties":{"s":"Jammu & Kashmir","v":3.6},"geometry":{"type":"Point","coordinates":[75.0618,33.2278]}},{"type":"Feature","properties":{"s":"Jammu & Kashmir","v":3.6},"geometry":{"type":"Point","coordinates":[74.9095,33.8727]}},{"type":"Feature","properties":{"s":"Jammu & Kashmir","v":3.6},"geometry":{"type":"Point","coordinates":[74.0997,34.3883]}},{"type":"Feature","properties":{"s":"Jammu & Kashmir","v":3.6},"geometry":{"type":"Point","coordinates":[74.8532,32.9824]}},{"type":"Feature","properties":{"s":"Jammu & Kashmir","v":3.6},"geometry":{"type":"Point","coordinates":[75.402,33.6507]}},{"type":"Feature","properties":{"s":"Jammu & Kashmir","v":3.6},"geometry":{"type":"Point","coordinates":[75.641,34.2211]}},{"type":"Feature","properties":{"s":"Jammu & Kashmir","v":3.6},"geometry":{"type":"Point","coordinates":[74.1633,33.2756]}},{"type":"Feature","properties":{"s":"Jammu & Kashmir","v":3.6},"geometry":{"type":"Point","coordinates":[75.8443,33.3533]}},{"type":"Feature","properties":{"s":"Jammu & Kashmir","v":3.6},"geometry":{"type":"Point","coordinates":[75.4558,32.8177]}},{"type":"Feature","properties":{"s":"Jammu & Kashmir","v":3.6},"geometry":{"type":"Point","coordinates":[73.7881,34.1422]}},{"type":"Feature","properties":{"s":"Jammu & Kashmir","v":3.6},"geometry":{"type":"Point","coordinates":[74.3084,34.2257]}},{"type":"Feature","properties":{"s":"Jammu & Kashmir","v":3.6},"geometry":{"type":"Point","coordinates":[74.26,34.8842]}},{"type":"Feature","properties":{"s":"Jammu & Kashmir","v":3.6},"geometry":{"type":"Point","coordinates":[75.1481,34.0961]}},{"type":"Feature","properties":{"s":"Jammu & Kashmir","v":3.6},"geometry":{"type":"Point","coordinates":[74.8064,33.5042]}},{"type":"Feature","properties":{"s":"Jammu & Kashmir","v":3.6},"geometry":{"type":"Point","coordinates":[75.3131,32.4083]}},{"type":"Feature","properties":{"s":"Jammu & Kashmir","v":3.6},"geometry":{"type":"Point","coordinates":[75.0382,33.3321]}},{"type":"Feature","properties":{"s":"Jammu & Kashmir","v":3.6},"geometry":{"type":"Point","coordinates":[75.9546,33.5281]}},{"type":"Feature","properties":{"s":"Jammu & Kashmir","v":3.6},"geometry":{"type":"Point","coordinates":[75.8341,33.9103]}},{"type":"Feature","properties":{"s":"Jammu & Kashmir","v":3.6},"geometry":{"type":"Point","coordinates":[75.8086,32.5653]}},{"type":"Feature","properties":{"s":"Jammu & Kashmir","v":3.6},"geometry":{"type":"Point","coordinates":[73.5386,34.1739]}},{"type":"Feature","properties":{"s":"Jammu & Kashmir","v":3.6},"geometry":{"type":"Point","coordinates":[73.8133,33.508]}},{"type":"Feature","properties":{"s":"Jammu & Kashmir","v":3.6},"geometry":{"type":"Point","coordinates":[75.1862,34.2009]}},{"type":"Feature","properties":{"s":"Jammu & Kashmir","v":3.6},"geometry":{"type":"Point","coordinates":[75.679,32.4392]}},{"type":"Feature","properties":{"s":"Jammu & Kashmir","v":3.6},"geometry":{"type":"Point","coordinates":[74.0467,33.2401]}},{"type":"Feature","properties":{"s":"Jammu & Kashmir","v":3.6},"geometry":{"type":"Point","coordinates":[74.8109,34.3127]}},{"type":"Feature","properties":{"s":"Jammu & Kashmir","v":3.6},"geometry":{"type":"Point","coordinates":[76.3045,33.4769]}},{"type":"Feature","properties":{"s":"Jammu & Kashmir","v":3.6},"geometry":{"type":"Point","coordinates":[76.124,33.8293]}},{"type":"Feature","properties":{"s":"Jammu & Kashmir","v":3.6},"geometry":{"type":"Point","coordinates":[74.8569,33.8657]}},{"type":"Feature","properties":{"s":"Jammu & Kashmir","v":3.6},"geometry":{"type":"Point","coordinates":[75.2827,33.985]}},{"type":"Feature","properties":{"s":"Jammu & Kashmir","v":3.6},"geometry":{"type":"Point","coordinates":[74.4469,33.8813]}},{"type":"Feature","properties":{"s":"Jammu & Kashmir","v":3.6},"geometry":{"type":"Point","coordinates":[73.7779,33.8012]}},{"type":"Feature","properties":{"s":"Jammu & Kashmir","v":3.6},"geometry":{"type":"Point","coordinates":[75.9857,33.9885]}},{"type":"Feature","properties":{"s":"Jammu & Kashmir","v":3.6},"geometry":{"type":"Point","coordinates":[74.3033,33.1265]}},{"type":"Feature","properties":{"s":"Jammu & Kashmir","v":3.6},"geometry":{"type":"Point","coordinates":[74.3026,34.2513]}},{"type":"Feature","properties":{"s":"Jammu & Kashmir","v":3.6},"geometry":{"type":"Point","coordinates":[73.9082,33.2916]}},{"type":"Feature","properties":{"s":"Jammu & Kashmir","v":3.6},"geometry":{"type":"Point","coordinates":[75.3924,34.3451]}},{"type":"Feature","properties":{"s":"Jammu & Kashmir","v":3.6},"geometry":{"type":"Point","coordinates":[73.8752,34.7147]}},{"type":"Feature","properties":{"s":"Jammu & Kashmir","v":3.6},"geometry":{"type":"Point","coordinates":[73.811,33.6068]}}]}